DEMO8 (TENZING)         
1 48951U 21059CA  26068.50149399  .00022523  00000+0  38915-3 0  9998
2 48951  97.7052 254.6062 0007009 356.8203   3.3002 15.50975268261833
SHERPA-LTC2             
1 53754U 22107BG  26068.71842008  .00004161  00000+0  22220-3 0  9990
2 53754  53.2359 281.0426 0397806 308.3547  48.2298 14.68527555187927
